0 SL-16 DEB
1 27690U 01056J   13280.31580686 -.00000021  00000-0  48069-4 0  7484
2 27690 100.1275 048.5465 0182251 307.0227 079.7787 13.30623413573909
0 SL-16 DEB
1 27690U 01056J   13282.35162366 -.00000036  00000-0  19302-4 0  7496
2 27690 100.1278 050.5476 0182281 302.1863 111.8584 13.30623454574170
0 SL-16 DEB
1 27690U 01056J   13286.87751753 -.00000029  00000-0  31848-4 0  7515
2 27690 100.1284 054.9965 0182340 291.4375 192.0435 13.30623601574778
0 SL-16 DEB
1 27690U 01056J   13289.33799653 -.00000023  00000-0  44231-4 0  7525
2 27690 100.1287 057.4156 0182410 285.6006 098.3590 13.30623376575102
0 SL-16 DEB
1 27690U 01056J   13291.91495315 -.00000030  00000-0  29750-4 0  7538
2 27690 100.1289 059.9489 0182453 279.4851 202.6328 13.30623515575447
0 SL-16 DEB
1 27690U 01056J   13293.94474502 -.00000037  00000-0  16668-4 0  7540
2 27690 100.1291 061.9443 0182510 274.6690 205.8478 13.30623688575717
